[{"OBJECT_NAME":"STARLINK-30255","OBJECT_ID":"2023-119E","EPOCH":"2026-03-09T22:00:01.999584","MEAN_MOTION":15.16774249,"ECCENTRICITY":0.000133,"INCLINATION":42.9991,"RA_OF_ASC_NODE":79.5096,"ARG_OF_PERICENTER":260.6815,"MEAN_ANOMALY":336.1551,"EPHEMERIS_TYPE":0,"CLASSIFICATION_TYPE":"U","NORAD_CAT_ID":57606,"ELEMENT_SET_NO":999,"REV_AT_EPOCH":562,"BSTAR":0.0048551842,"MEAN_MOTION_DOT":0.00098184,"MEAN_MOTION_DDOT":0},{"OBJECT_NAME":"FLOCK 4H-22","OBJECT_ID":"2025-276BM","EPOCH":"2026-03-09T17:55:05.442528","MEAN_MOTION":15.18837186,"ECCENTRICITY":0.00032107,"INCLINATION":97.4241,"RA_OF_ASC_NODE":143.9598,"ARG_OF_PERICENTER":42.7881,"MEAN_ANOMALY":317.3603,"EPHEMERIS_TYPE":0,"CLASSIFICATION_TYPE":"U","NORAD_CAT_ID":66725,"ELEMENT_SET_NO":999,"REV_AT_EPOCH":1532,"BSTAR":0.00043673882,"MEAN_MOTION_DOT":9.034e-5,"MEAN_MOTION_DDOT":0}]
